MEASAT 3D               
1 52904U 22067B   26062.10534001 -.00000257  00000+0  00000+0 0  9990
2 52904   0.0623 302.8806 0003197  23.8184 323.5805  1.00271484 13586
SES-22                  
1 52933U 22071A   26062.13108014  .00000089  00000+0  00000+0 0  9993
2 52933   0.0184 233.6766 0001043 100.3289  95.0807  1.00274571  6452
WFOV (USA 332)          
1 52940U 22073A   26061.96826322 -.00000377  00000+0  00000+0 0  9993
2 52940   3.4383  79.9015 0001426 207.7366 340.9040  1.00268634 13305
TIANLIAN 2-03           
1 53100U 22078A   26062.08930659  .00000056  00000+0  00000+0 0  9993
2 53100   0.4013  72.9435 0003349 251.7536 238.8944  1.00272306 13482
SBIRS GEO-6 (USA 336)   
1 53355U 22092A   26061.97224990 -.00000309  00000+0  00000+0 0  9994
2 53355   3.4400 315.8133 0002309  18.8909 315.0232  1.00271623 13166
EUTELSAT KONNECT VHTS   
1 53765U 22110A   26062.08783324  .00000001  00000+0  00000+0 0  9992
2 53765   0.0587 102.4713 0002859 212.0633 240.6113  1.00270620  5771
ZHONGXING-1E            
1 53813U 22112A   26062.17476037 -.00000164  00000+0  00000+0 0  9999
2 53813   0.0175 118.7508 0003460 183.2267   3.2293  1.00269693 12780
SES-20                  
1 53960U 22123A   26062.15392248 -.00000116  00000+0  00000+0 0  9990
2 53960   0.0142 107.6675 0001354 316.6571  48.8816  1.00270541 12475
SES-21                  
1 53961U 22123B   26062.15947694  .00000054  00000+0  00000+0 0  9992
2 53961   0.0277  64.1006 0000991 277.6436 105.5920  1.00271093  6149
GALAXY 33 (G-33)        
1 54026U 22128A   26062.15947694  .00000063  00000+0  00000+0 0  9990
2 54026   0.0185 201.8468 0001979 129.4039 114.0740  1.00274338 12677
GALAXY 34 (G-34)        
1 54027U 22128B   26062.15947694  .00000000  00000+0  00000+0 0  9992
2 54027   0.0187 155.5161 0001457 188.5908 105.3224  1.00270922 12841
ANGOSAT 2               
1 54033U 22131A   26062.16314697  .00000120  00000+0  00000+0 0  9998
2 54033   0.0118 156.5833 0000502 290.5425 155.5183  1.00272718 12416
EUTELSAT HOTBIRD 13F    
1 54048U 22134A   26062.08991326  .00000071  00000+0  00000+0 0  9993
2 54048   0.0599 294.3918 0002088  60.9710 210.8442  1.00271753 12317
LDPE-2                  
1 54219U 22144A   26061.95113306 -.00000359  00000+0  00000+0 0  9993
2 54219   5.3848  64.3180 0000622 220.6715 319.8704  1.00558473 10776
EUTELSAT HOTBIRD 13G    
1 54225U 22146A   26062.08991326  .00000071  00000+0  00000+0 0  9993
2 54225   0.0509 234.2432 0001928 312.7136  19.2582  1.00272107  6404
ZHONGXING-19            
1 54230U 22148A   26062.19096712 -.00000097  00000+0  00000+0 0  9997
2 54230   0.0148 105.5243 0002625 232.6086  54.7760  1.00271300 12311
GALAXY 31 (G-31)        
1 54243U 22153A   26062.15947694 -.00000002  00000+0  00000+0 0  9993
2 54243   0.0171 204.7217 0001497 145.0138 107.5864  1.00272061  6067
